TIANMU-1 20             
1 58661U 23208B   26187.58159097  .00006624  00000+0  20976-3 0  9993
2 58661  97.4459 304.6414 0005735 247.8451 112.2183 15.33071886140396
TIANMU-1 21             
1 58662U 23208C   26187.60559413  .00008675  00000+0  25417-3 0  9996
2 58662  97.4519 307.4310 0005969 238.3024 121.7638 15.35442201140542
TIANMU-1 22             
1 58663U 23208D   26187.61263124  .00006254  00000+0  20921-3 0  9995
2 58663  97.4513 303.9364 0002223 264.3787  95.7200 15.31342921140305
TIANMU-1 15             
1 58700U 24004A   26187.62772006  .00004932  00000+0  18972-3 0  9991
2 58700  97.4675  13.8184 0005675 266.5635  93.4955 15.26853379138748
TIANMU-1 16             
1 58701U 24004B   26187.61776472  .00004444  00000+0  17076-3 0  9994
2 58701  97.4622  13.0297 0004342 287.5052  72.5712 15.26954787138748
TIANMU-1 17             
1 58702U 24004C   26187.60323608  .00004879  00000+0  18720-3 0  9992
2 58702  97.4649  13.5072 0003904 295.3406  64.7428 15.26953136138730
TIANMU-1 18             
1 58703U 24004D   26187.64438515  .00004728  00000+0  18196-3 0  9991
2 58703  97.4666  13.8101 0003372 267.2747  92.8106 15.26870850138748
INSAT-3DS               
1 58990U 24033A   26187.59098228 -.00000141  00000+0  00000+0 0  9995
2 58990   0.0801  95.8287 0001142  18.0437 105.5166  1.00272729 47265
METEOR-M2 4             
1 59051U 24039A   26187.59782068  .00000013  00000+0  25572-4 0  9995
2 59051  98.7020 146.6528 0008147 110.1363 250.0692 14.22431512122021
GOES 19                 
1 60133U 24119A   26187.55982428 -.00000234  00000+0  00000+0 0  9995
2 60133   0.0422 216.9321 0000472 317.9319 236.0197  1.00272767  7156
MTG-S1                  
1 64723U 25143A   26187.57464435  .00000007  00000+0  00000+0 0  9994
2 64723   0.5894 342.9847 0003209 262.2466 245.7466  1.00272482  3619
METOP-SGA1              
1 65159U 25172A   26187.16693887  .00000036  00000+0  37240-4 0  9993
2 65159  98.6633 246.4932 0007568 359.2458   0.8706 14.19818208 46480
FENGYUN 3H              
1 65815U 25219A   26187.34877931  .00000065  00000+0  50894-4 0  9990
2 65815  98.6770 127.7456 0001336  65.0729 295.0586 14.19923890 40104
